LEMUR-2-FURIAUS         
1 42840U 17042R   26068.96143223  .00025928  00000+0  99966-3 0  9991
2 42840  97.3753 248.4990 0007537  55.8686 304.3266 15.26272951473053
STARLINK-35309          
1 66323U 25253E   26068.44853025  .00028955  00000+0  10574-2 0  9997
2 66323  43.0018 214.2055 0001941 253.3362 106.7276 15.27587607 20207
